"Hyperion" "Sol/Saturn"
{
	Mesh "hyperion.3ds"
	Texture "asteroid.jpg"
	Radius   205

	CustomOrbit "hyperion"
	EllipticalOrbit
	{
	Period        21.276609
	SemiMajorAxis  1481100
	Eccentricity   0.1042
	Inclination    0.43
	MeanAnomaly    350
	}

	# The rotation of Hyperion is chaotic; we don't attempt to model
	# the rotation exactly, but instead use non-zero precession rate to
	# make the rotation appear somewhat irregular.
	Obliquity       25
	RotationPeriod  336 # 13 days
	PrecessionRate  15.65 # 23 days

	Albedo         0.3
}

"Iapetus" "Sol/Saturn"
{
	Texture "iapetus.jpg"
	Radius     718

	CustomOrbit "iapetus"
	EllipticalOrbit
	{
	Period         79.330183
	SemiMajorAxis  3561300
	Eccentricity   0.0283
	Inclination    7.52
	MeanAnomaly    245
	}

	Albedo         0.2
}

"Phoebe" "Sol/Saturn"
{
	Mesh "roughsphere.cms"
	Texture "asteroid.jpg"
	Radius     110

	CustomOrbit "phoebe"
	EllipticalOrbit
	{
	Epoch          2447892.5
	Period         548.2122790
	SemiMajorAxis  12944346
	Eccentricity   0.16435
	Inclination    174.751
	LongOfPericenter 203.958
	MeanLongitude  390.742
	AscendingNode  233.037
	}

	RotationPeriod 9.6

	Albedo         0.05
}


"Uranus" "Sol"
{
	Texture "uranus.jpg"
	Color [ 0.75 0.85 1.0 ]
	HazeColor [ 0.5 0.8 1.0 ]
	HazeDensity 0.2
	Radius 26200
	Oblateness 0.024

	CustomOrbit "uranus"
	EllipticalOrbit
	{
	Period           84.0139
	SemiMajorAxis    19.1913
	Eccentricity      0.0472
	Inclination       0.7699
	AscendingNode     74.230
	LongOfPericenter 170.964
        MeanLongitude    313.232
	}

	RotationPeriod   17.24
	Obliquity        97.92
	LongOfRotationAxis 167.76

	Albedo            0.66

	Rings {
		Inner  41800
		Outer  51149
		Texture "uranus-rings.png"
	}
}

"Miranda" "Sol/Uranus"
{
	Texture "miranda.jpg"
	Radius   235

	CustomOrbit "miranda"
	EllipticalOrbit
	{
	Period         1.413
	SemiMajorAxis  129800
	Eccentricity   0.0027
	Inclination    4.22
	MeanAnomaly    120
	}
}

"Ariel" "Sol/Uranus"
{
	Texture "ariel.jpg"
	Radius   576

	CustomOrbit "ariel"
	EllipticalOrbit
	{
	Period         2.520
	SemiMajorAxis  191200
	Eccentricity   0.0034
	Inclination    0.31
	MeanAnomaly    56
	}
}

"Umbriel" "Sol/Uranus"
{
	Texture "umbriel.jpg"
	Radius   585

	CustomOrbit "umbriel"
	EllipticalOrbit
	{
	Period         4.144
	SemiMajorAxis  266000
	Eccentricity   0.0050
	Inclination    0.36
	MeanAnomaly    280
	}
}

"Titania" "Sol/Uranus"
{
	Texture "titania.jpg"
	Radius   789

	CustomOrbit "titania"
	EllipticalOrbit
	{
	Period         8.706
	SemiMajorAxis  435800
	Eccentricity   0.0022
	Inclination    0.10
	MeanAnomaly    30
	}
}

"Oberon" "Sol/Uranus"
{
	Texture "oberon.jpg"
	Radius   761

	CustomOrbit "oberon"
	EllipticalOrbit
	{
	Period        13.463
	SemiMajorAxis  583600
	Eccentricity   0.0008
	Inclination    0.10
	MeanAnomaly    150
	}
}


"Neptune" "Sol"
{
	Texture "neptune.jpg"
	Color [ 0.75 0.75 1.0 ]
	HazeColor [ 0.6 1 0.75 ]
	HazeDensity 0.35
	Radius 25225
	Oblateness 0.027

	CustomOrbit "neptune"
	EllipticalOrbit
	{
	Period           164.793
	SemiMajorAxis     30.0690
	Eccentricity      0.0086
	Inclination       1.7692
	AscendingNode   131.722
	LongOfPericenter 44.971
        MeanLongitude   304.880
	}

	RotationPeriod   16.11
	Obliquity        28.03
	LongOfRotationAxis 49.235

	Albedo            0.62
}

"Proteus" "Sol/Neptune"
{
	Mesh "proteus.3ds"
	Texture "asteroid.jpg"
	Radius   218

	EllipticalOrbit
	{
	Period         1.122315
	SemiMajorAxis  117647
	Eccentricity   0.000
	Inclination    0.55
	MeanAnomaly    310
	}

	Albedo         0.2
}

"Triton" "Sol/Neptune"
{
	Texture "triton.jpg"
	Radius   1353

	Atmosphere {
		Height 1
		Lower [ 0.5 0.5 0.5 ]
		Upper [ 0.5 0.5 0.5 ]
		Sky [ 0.0 0.0 0.0 ]
	}

	EllipticalOrbit
	{
	Period         5.876854
	SemiMajorAxis  354760
	Eccentricity   0.00004
	Inclination    156.834
	MeanAnomaly    120
	}

	Albedo         0.7
}

"Nereid" "Sol/Neptune"
{
	Mesh "asteroid.cms"
	Texture "asteroid.jpg"
	Radius   170

	EllipticalOrbit
	{
	Period         360.13619
	SemiMajorAxis  5513400
	Eccentricity   0.7512
	Inclination    7.23
	MeanAnomaly    185
	}
}


"Pluto" "Sol"
{
	Texture "pluto.jpg"
	BumpMap "plutobump1k.jpg"
	BumpHeight 2.5
	Radius 1137

	CustomOrbit "pluto"
	EllipticalOrbit
	{
	Period            248.54
	SemiMajorAxis     39.48168677
	Eccentricity       0.24880766
	Inclination       17.14175
	AscendingNode    110.30347
	LongOfPericenter 224.06776
        MeanLongitude    238.92881
	}

	RotationPeriod  153.29
	Obliquity       122.53
	Albedo            0.3
}

"Charon" "Sol/Pluto"
{
	Texture "charon.jpg"
	Radius   593

	EllipticalOrbit
	{
	Period         6.387083
	SemiMajorAxis  19636
	Eccentricity   0.0076
	Inclination    0.0 # 96.163 degrees relative to ecliptic
	MeanAnomaly    120
	}
	
	Albedo         0.3
}


# A few asteroids for fun . . .
"Ceres" "Sol"
{
	Class "asteroid"
	Texture "asteroid.jpg"
	Radius 456

	EllipticalOrbit
	{
	Epoch      2452600.5
	Period            4.60014
	SemiMajorAxis     2.7660
	Eccentricity      0.0793
	Inclination      10.584
	AscendingNode    80.483
	ArgOfPericenter  74.043
        MeanAnomaly     232.067
	}

	RotationPeriod    9.075
}

"Pallas" "Sol"
{
	Class "asteroid"
	Texture "asteroid.jpg"
	Radius 260

	EllipticalOrbit
	{
	Epoch      2452600.5
	Period            4.61868
	SemiMajorAxis     2.7733
	Eccentricity      0.2300
	Inclination      34.846
	AscendingNode   173.166
	ArgOfPericenter 310.423
        MeanAnomaly     218.057
	}

	RotationPeriod    7.811
}

"Juno" "Sol"
{
	Class "asteroid"
	Texture "asteroid.jpg"
	Radius 120

	EllipticalOrbit
	{
	Epoch      2452600.5
	Period            4.35540
	SemiMajorAxis     2.6669
	Eccentricity      0.2589
	Inclination      12.972
	AscendingNode   170.133
	ArgOfPericenter 247.948
        MeanAnomaly     119.146
	}

	RotationPeriod    7.811
}

"Vesta" "Sol"
{
	Class "asteroid"
	Mesh   "vesta.3ds"
	Texture "asteroid.jpg"
	Radius 265

	EllipticalOrbit
	{
	Epoch       2452000.5
	Period            3.62729
	SemiMajorAxis     2.3670775
	Eccentricity      0.089753
	Inclination       7.1346
	AscendingNode   103.9510
	ArgOfPericenter 149.4585
        MeanAnomaly     104.980
	}

	RotationPeriod    5.342
}

"Gaspra" "Sol"
{
	Class "asteroid"
	Mesh "gaspra.3ds"
	Texture "asteroid.jpg"
	Color   [ 0.52 0.47 0.42 ]
	BlendTexture true

	Radius 9.5

	EllipticalOrbit
	{
	Epoch           2452332.5
	Period          3.284564
	SemiMajorAxis   2.2096245
	Eccentricity    0.1730324
	Inclination     4.10285
	AscendingNode   253.31108
	ArgOfPericenter 129.42680
	MeanAnomaly     353.04048
	}

	RotationPeriod 7.042
	Albedo 0.1
}

"Ida" "Sol"
{
	Class "asteroid"
	Mesh   "ida.3ds"
	Texture "asteroid.jpg"
	Radius 45

	EllipticalOrbit
	{
	Period            4.84
	SemiMajorAxis     2.861
	Eccentricity      0.0451
	Inclination       1.14
	AscendingNode   324.419
	ArgOfPericenter 112.419
        MeanAnomaly      92.511
	}

	RotationPeriod    4.633
}

"Dactyl" "Sol/Ida"
{
	Class "asteroid"
	# Data for Dactyl is a very rough guess based on a value of
	# 2.8 g/cm^3 for Ida
	Texture "asteroid.jpg"
	Mesh "roughsphere.cms"
	Radius   0.7

	EllipticalOrbit
	{
	Period         1.13
	SemiMajorAxis  98
	Eccentricity   0.05
	}
}


"Eros" "Sol"
{
	Class "asteroid"
	Mesh   "eros.3ds"
	Texture "asteroid.jpg"
	# Color sampled from true color photo taken by NEAR
	Color   [ 0.52 0.47 0.42 ]
	BlendTexture true
	Radius 16.5

	EllipticalOrbit
	{
	Period            1.76
	SemiMajorAxis     1.4583
	Eccentricity      0.2230
	Inclination      10.831
	AscendingNode   304.435
	ArgOfPericenter   0.987
        MeanAnomaly     310.0
	}

	RotationPeriod    5.270
	Albedo            0.16
}

"Toutatis" "Sol"
{
	Class "asteroid"
	Mesh   "toutatis.3ds"
	Texture "asteroid.jpg"
	# We'll just use the same color as Eros
	Color   [ 0.52 0.47 0.42 ]
	BlendTexture true
	Radius  2.3

	EllipticalOrbit
	{
	Period            3.976715
	SemiMajorAxis     2.5100537
	Eccentricity      0.6342274
	Inclination       0.46959
	AscendingNode   128.24788
	ArgOfPericenter 274.78070
        MeanAnomaly      86.28120
	Epoch        2452200.5
	}

	Obliquity       35
	RotationPeriod  129.6 # 5.41 days
	PrecessionRate  48.98 # 7.35 day period

	Albedo            0.16
}

"Geographos" "Sol"
{
	Class "asteroid"
	Mesh   "geographos.3ds"
	Texture "asteroid.jpg"
	# We'll just use the same color as Eros
	Color   [ 0.52 0.47 0.42 ]
	BlendTexture true
	Radius  1.0

	EllipticalOrbit
	{
	Period            1.39 
	SemiMajorAxis     1.2455
	Eccentricity      0.3354
	Inclination      13.34
	AscendingNode   337.352
	ArgOfPericenter 276.756
        MeanAnomaly     180.595
	Epoch      2450800.5
	}

	RotationPeriod    5.222
	Albedo            0.16
}

"Kleopatra" "Sol"
{
	Class "asteroid"
	Mesh   "kleopatra.3ds"
	Texture "asteroid.jpg"
	# We'll just use the same color as Eros
	Color   [ 0.52 0.47 0.42 ]
	BlendTexture true
	Radius  109

	EllipticalOrbit
	{
	Period            4.67
	SemiMajorAxis     2.793
	Eccentricity      0.2535
	Inclination      13.14
	AscendingNode   337.352
	ArgOfPericenter 276.756
        MeanAnomaly     180.595
	Epoch      2450800.5
	}

	RotationPeriod    5.385
	Albedo            0.16
	# Class M

}

"1998 KY26" "Sol"
{
	Class "asteroid"
	Mesh   "ky26.3ds"
	Texture "asteroid.jpg"
	# We'll just use the same color as Eros
	Color   [ 0.52 0.47 0.42 ]
	BlendTexture true
	Radius  0.015

	EllipticalOrbit
	{
	Period            1.3752
	SemiMajorAxis     1.2320798
	Eccentricity      0.20151423
	Inclination       1.48127
	AscendingNode    84.45490
	ArgOfPericenter 209.14766
        MeanAnomaly     356.6879717
	Epoch       2452000.5 
	}

	RotationPeriod    0.178
	Albedo            0.15

}

